[{"OBJECT_NAME":"STARLINK-35498","OBJECT_ID":"2025-293Q","EPOCH":"2026-03-09T10:46:11.636256","MEAN_MOTION":14.98325601,"ECCENTRICITY":0.00029353,"INCLINATION":70.0006,"RA_OF_ASC_NODE":94.9889,"ARG_OF_PERICENTER":261.5962,"MEAN_ANOMALY":98.4864,"EPHEMERIS_TYPE":0,"CLASSIFICATION_TYPE":"U","NORAD_CAT_ID":67017,"ELEMENT_SET_NO":999,"REV_AT_EPOCH":1485,"BSTAR":-0.0010476463,"MEAN_MOTION_DOT":-0.00012569,"MEAN_MOTION_DDOT":0},{"OBJECT_NAME":"IKONOS 2","OBJECT_ID":"1999-051A","EPOCH":"2026-03-09T15:19:40.153152","MEAN_MOTION":14.96976552,"ECCENTRICITY":0.0006412,"INCLINATION":98.1486,"RA_OF_ASC_NODE":313.4587,"ARG_OF_PERICENTER":157.8343,"MEAN_ANOMALY":202.3156,"EPHEMERIS_TYPE":0,"CLASSIFICATION_TYPE":"U","NORAD_CAT_ID":25919,"ELEMENT_SET_NO":999,"REV_AT_EPOCH":42402,"BSTAR":0.00024901,"MEAN_MOTION_DOT":2.801e-5,"MEAN_MOTION_DDOT":0}]
